{"type": "FeatureCollection", "features": [ {"type": "Feature", "properties": {"norad_id": 65942, "name": "BOTAN", "group": "stations", "lat": 33.363018462438156, "lon": -19.90060162336196, "alt_km": 380.15082150828766, "timestamp": "2025-12-02T08:59:31.521649+00:00", "meta": {"OBJECT_NAME": "BOTAN", "OBJECT_ID": "1998-067XP", "EPOCH": "2025-12-01T00:07:46.260192", "MEAN_MOTION": 15.5994409, "ECCENTRICITY": 0.00045874, "INCLINATION": 51.6292, "RA_OF_ASC_NODE": 198.4381, "ARG_OF_PERICENTER": 161.3348, "MEAN_ANOMALY": 198.7814, "EPHEMERIS_TYPE": 0, "CLASSIFICATION_TYPE": "U", "NORAD_CAT_ID": 65942, "ELEMENT_SET_NO": 999, "REV_AT_EPOCH": 803, "BSTAR": 0.0010535817, "MEAN_MOTION_DOT": 0.00087116, "MEAN_MOTION_DDOT": 0}, "tle": {"line1": "1 65942U 98067XP  25335.00539653  .00087116  00000+0  10536-2 0  9994", "line2": "2 65942  51.6292 198.4381 0004587 161.3348 198.7814 15.59944090  8032"}}, "geometry": {"type": "Point", "coordinates": [-19.90060162336196, 33.363018462438156]}}, {"type": "Feature", "properties": {"norad_id": 65943, "name": "E-KAGAKU-1", "group": "stations", "lat": -50.85009843535684, "lon": 115.29567139401078, "alt_km": 400.80757866068325, "timestamp": "2025-12-02T08:59:31.521659+00:00", "meta": {"OBJECT_NAME": "E-KAGAKU-1", "OBJECT_ID": "1998-067XQ", "EPOCH": "2025-12-01T01:00:17.648352", "MEAN_MOTION": 15.57460747, "ECCENTRICITY": 0.00037303, "INCLINATION": 51.6301, "RA_OF_ASC_NODE": 198.6831, "ARG_OF_PERICENTER": 140.2253, "MEAN_ANOMALY": 219.9013, "EPHEMERIS_TYPE": 0, "CLASSIFICATION_TYPE": "U", "NORAD_CAT_ID": 65943, "ELEMENT_SET_NO": 999, "REV_AT_EPOCH": 803, "BSTAR": 0.0008573363, "MEAN_MOTION_DOT": 0.00064224, "MEAN_MOTION_DDOT": 0}, "tle": {"line1": "1 65943U 98067XQ  25335.04187093  .00064224  00000+0  85734-3 0  9994", "line2": "2 65943  51.6301 198.6831 0003730 140.2253 219.9013 15.57460747  8033"}}, "geometry": {"type": "Point", "coordinates": [115.29567139401078, -50.85009843535684]}}, {"type": "Feature", "properties": {"norad_id": 66052, "name": "HRC MONOBLOCK CAMERA", "group": "stations", "lat": 51.34531869080919, "lon": -84.72250213606692, "alt_km": 398.8605105120132, "timestamp": "2025-12-02T08:59:31.521669+00:00", "meta": {"OBJECT_NAME": "HRC MONOBLOCK CAMERA", "OBJECT_ID": "1998-067XR", "EPOCH": "2025-12-01T21:49:03.450144", "MEAN_MOTION": 15.53098539, "ECCENTRICITY": 0.0004502, "INCLINATION": 51.6296, "RA_OF_ASC_NODE": 195.4677, "ARG_OF_PERICENTER": 140.566, "MEAN_ANOMALY": 219.5658, "EPHEMERIS_TYPE": 0, "CLASSIFICATION_TYPE": "U", "NORAD_CAT_ID": 66052, "ELEMENT_SET_NO": 999, "REV_AT_EPOCH": 715, "BSTAR": 0.00057466, "MEAN_MOTION_DOT": 0.00036347, "MEAN_MOTION_DDOT": 0}, "tle": {"line1": "1 66052U 98067XR  25335.90906771  .00036347  00000+0  57466-3 0  9999", "line2": "2 66052  51.6296 195.4677 0004502 140.5660 219.5658 15.53098539  7159"}}, "geometry": {"type": "Point", "coordinates": [-84.72250213606692, 51.34531869080919]}}, {"type": "Feature", "properties": {"norad_id": 66174, "name": "HTV-X1", "group": "stations", "lat": 32.8009964951007, "lon": -16.91309891320551, "alt_km": 413.3608659814481, "timestamp": "2025-12-02T08:59:31.521682+00:00", "meta": {"OBJECT_NAME": "HTV-X1", "OBJECT_ID": "2025-241A", "EPOCH": "2025-12-01T13:49:44.445504", "MEAN_MOTION": 15.49226524, "ECCENTRICITY": 0.00036473, "INCLINATION": 51.6309, "RA_OF_ASC_NODE": 197.7449, "ARG_OF_PERICENTER": 190.9481, "MEAN_ANOMALY": 169.1428, "EPHEMERIS_TYPE": 0, "CLASSIFICATION_TYPE": "U", "NORAD_CAT_ID": 66174, "ELEMENT_SET_NO": 999, "REV_AT_EPOCH": 51, "BSTAR": 0.00016365535, "MEAN_MOTION_DOT": 8.648e-05, "MEAN_MOTION_DDOT": 0}, "tle": {"line1": "1 66174U 25241A   25335.57620886  .00008648  00000+0  16366-3 0  9998", "line2": "2 66174  51.6309 197.7449 0003647 190.9481 169.1428 15.49226524   510"}}, "geometry": {"type": "Point", "coordinates": [-16.91309891320551, 32.8009964951007]}}, {"type": "Feature", "properties": {"norad_id": 66515, "name": "SZ-21 MODULE", "group": "stations", "lat": 2.781558710978574, "lon": 82.39077995156725, "alt_km": 385.6051525600851, "timestamp": "2025-12-02T08:59:31.521692+00:00", "meta": {"OBJECT_NAME": "SZ-21 MODULE", "OBJECT_ID": "2025-246C", "EPOCH": "2025-12-01T23:45:55.979136", "MEAN_MOTION": 15.61701927, "ECCENTRICITY": 0.0005672, "INCLINATION": 41.4766, "RA_OF_ASC_NODE": 81.5812, "ARG_OF_PERICENTER": 196.2945, "MEAN_ANOMALY": 163.7713, "EPHEMERIS_TYPE": 0, "CLASSIFICATION_TYPE": "U", "NORAD_CAT_ID": 66515, "ELEMENT_SET_NO": 999, "REV_AT_EPOCH": 276, "BSTAR": 0.00033718, "MEAN_MOTION_DOT": 0.00029734, "MEAN_MOTION_DDOT": 0}, "tle": {"line1": "1 66515U 25246C   25335.99023124  .00029734  00000+0  33718-3 0  9999", "line2": "2 66515  41.4766  81.5812 0005672 196.2945 163.7713 15.61701927  2766"}}, "geometry": {"type": "Point", "coordinates": [82.39077995156725, 2.781558710978574]}}, {"type": "Feature", "properties": {"norad_id": 66645, "name": "SHENZHOU-22", "group": "stations", "lat": -23.988317691014874, "lon": -70.1398721184818, "alt_km": 394.752528774854, "timestamp": "2025-12-02T08:59:31.521704+00:00", "meta": {"OBJECT_NAME": "SHENZHOU-22", "OBJECT_ID": "2025-272A", "EPOCH": "2025-12-01T15:08:36.996864", "MEAN_MOTION": 15.5848082, "ECCENTRICITY": 0.00103969, "INCLINATION": 41.4671, "RA_OF_ASC_NODE": 84.1132, "ARG_OF_PERICENTER": 308.0304, "MEAN_ANOMALY": 51.9595, "EPHEMERIS_TYPE": 0, "CLASSIFICATION_TYPE": "U", "NORAD_CAT_ID": 66645, "ELEMENT_SET_NO": 999, "REV_AT_EPOCH": 26230, "BSTAR": 0.00025188161, "MEAN_MOTION_DOT": 0.00019534, "MEAN_MOTION_DDOT": 0}, "tle": {"line1": "1 66645U 25272A   25335.63098376  .00019534  00000+0  25188-3 0  9993", "line2": "2 66645  41.4671  84.1132 0010396 308.0304  51.9595 15.58480820262306"}}, "geometry": {"type": "Point", "coordinates": [-70.1398721184818, -23.988317691014874]}}, {"type": "Feature", "properties": {"norad_id": 66646, "name": "CZ-2F R/B", "group": "stations", "lat": -29.128722150136436, "lon": 37.36471575660108, "alt_km": 303.8637428423517, "timestamp": "2025-12-02T08:59:31.521717+00:00", "meta": {"OBJECT_NAME": "CZ-2F R/B", "OBJECT_ID": "2025-272B", "EPOCH": "2025-11-26T11:17:54.506400", "MEAN_MOTION": 16.01945612, "ECCENTRICITY": 0.01210796, "INCLINATION": 41.4431, "RA_OF_ASC_NODE": 114.9009, "ARG_OF_PERICENTER": 133.7676, "MEAN_ANOMALY": 227.3272, "EPHEMERIS_TYPE": 0, "CLASSIFICATION_TYPE": "U", "NORAD_CAT_ID": 66646, "ELEMENT_SET_NO": 999, "REV_AT_EPOCH": 21, "BSTAR": 0.00029319366, "MEAN_MOTION_DOT": 0.00449059, "MEAN_MOTION_DDOT": 7.567612e-06}, "tle": {"line1": "1 66646U 25272B   25330.47076975  .00449059  75676-5  29319-3 0  9998", "line2": "2 66646  41.4431 114.9009 0121079 133.7676 227.3272 16.01945612   217"}}, "geometry": {"type": "Point", "coordinates": [37.36471575660108, -29.128722150136436]}}, {"type": "Feature", "properties": {"norad_id": 66664, "name": "SOYUZ-MS 28", "group": "stations", "lat": 32.79695473729586, "lon": -16.90738105490934, "alt_km": 413.3714597302278, "timestamp": "2025-12-02T08:59:31.521729+00:00", "meta": {"OBJECT_NAME": "SOYUZ-MS 28", "OBJECT_ID": "2025-275A", "EPOCH": "2025-12-01T21:34:10.812000", "MEAN_MOTION": 15.49234272, "ECCENTRICITY": 0.0003628, "INCLINATION": 51.6307, "RA_OF_ASC_NODE": 196.1486, "ARG_OF_PERICENTER": 192.4733, "MEAN_ANOMALY": 167.6166, "EPHEMERIS_TYPE": 0, "CLASSIFICATION_TYPE": "U", "NORAD_CAT_ID": 66664, "ELEMENT_SET_NO": 999, "REV_AT_EPOCH": 76, "BSTAR": 0.0001829, "MEAN_MOTION_DOT": 9.722e-05, "MEAN_MOTION_DDOT": 0}, "tle": {"line1": "1 66664U 25275A   25335.89873625  .00009722  00000+0  18290-3 0  9997", "line2": "2 66664  51.6307 196.1486 0003628 192.4733 167.6166 15.49234272   760"}}, "geometry": {"type": "Point", "coordinates": [-16.90738105490934, 32.79695473729586]}}]}